{"type": "FeatureCollection", "features": [ {"type": "Feature", "properties": {"norad_id": 39019, "name": "PLEIADES 1B", "group": "resource", "lat": -22.809402680527555, "lon": -116.45846767586647, "alt_km": 703.6223136575445, "timestamp": "2025-12-20T11:30:28.028007+00:00", "meta": {"OBJECT_NAME": "PLEIADES 1B", "OBJECT_ID": "2012-068A", "EPOCH": "2025-12-20T03:59:40.418592", "MEAN_MOTION": 14.58558717, "ECCENTRICITY": 0.0001163, "INCLINATION": 98.1794, "RA_OF_ASC_NODE": 66.7013, "ARG_OF_PERICENTER": 86.9376, "MEAN_ANOMALY": 273.1957, "EPHEMERIS_TYPE": 0, "CLASSIFICATION_TYPE": "U", "NORAD_CAT_ID": 39019, "ELEMENT_SET_NO": 999, "REV_AT_EPOCH": 69475, "BSTAR": 3.8218e-05, "MEAN_MOTION_DOT": 1.32e-06, "MEAN_MOTION_DDOT": 0}, "tle": {"line1": "1 39019U 12068A   25354.16644003  .00000132  00000+0  38218-4 0  9993", "line2": "2 39019  98.1794  66.7013 0001163  86.9376 273.1957 14.58558717694751"}}, "geometry": {"type": "Point", "coordinates": [-116.45846767586647, -22.809402680527555]}}, {"type": "Feature", "properties": {"norad_id": 39030, "name": "GOKTURK 2", "group": "resource", "lat": 15.990671366471654, "lon": 17.97050165187356, "alt_km": 644.4429354704635, "timestamp": "2025-12-20T11:30:28.028017+00:00", "meta": {"OBJECT_NAME": "GOKTURK 2", "OBJECT_ID": "2012-073A", "EPOCH": "2025-12-20T04:15:24.924384", "MEAN_MOTION": 14.75299338, "ECCENTRICITY": 0.0001254, "INCLINATION": 97.6886, "RA_OF_ASC_NODE": 195.4647, "ARG_OF_PERICENTER": 107.8104, "MEAN_ANOMALY": 252.3243, "EPHEMERIS_TYPE": 0, "CLASSIFICATION_TYPE": "U", "NORAD_CAT_ID": 39030, "ELEMENT_SET_NO": 999, "REV_AT_EPOCH": 69811, "BSTAR": 1.5653e-05, "MEAN_MOTION_DOT": 5.9e-07, "MEAN_MOTION_DDOT": 0}, "tle": {"line1": "1 39030U 12073A   25354.17737181  .00000059  00000+0  15653-4 0  9999", "line2": "2 39030  97.6886 195.4647 0001254 107.8104 252.3243 14.75299338698117"}}, "geometry": {"type": "Point", "coordinates": [17.97050165187356, 15.990671366471654]}}, {"type": "Feature", "properties": {"norad_id": 39084, "name": "LANDSAT 8", "group": "resource", "lat": -26.980977716430118, "lon": 66.65164605023638, "alt_km": 708.602201519001, "timestamp": "2025-12-20T11:30:28.028027+00:00", "meta": {"OBJECT_NAME": "LANDSAT 8", "OBJECT_ID": "2013-008A", "EPOCH": "2025-12-20T03:23:32.556192", "MEAN_MOTION": 14.57109573, "ECCENTRICITY": 0.0001083, "INCLINATION": 98.2063, "RA_OF_ASC_NODE": 62.1053, "ARG_OF_PERICENTER": 90.5011, "MEAN_ANOMALY": 269.6312, "EPHEMERIS_TYPE": 0, "CLASSIFICATION_TYPE": "U", "NORAD_CAT_ID": 39084, "ELEMENT_SET_NO": 999, "REV_AT_EPOCH": 67182, "BSTAR": 7.4801e-05, "MEAN_MOTION_DOT": 2.92e-06, "MEAN_MOTION_DDOT": 0}, "tle": {"line1": "1 39084U 13008A   25354.14134903  .00000292  00000+0  74801-4 0  9996", "line2": "2 39084  98.2063  62.1053 0001083  90.5011 269.6312 14.57109573671824"}}, "geometry": {"type": "Point", "coordinates": [66.65164605023638, -26.980977716430118]}}, {"type": "Feature", "properties": {"norad_id": 39086, "name": "SARAL", "group": "resource", "lat": 0.8891335927307921, "lon": 178.1749610058052, "alt_km": 785.4368298972231, "timestamp": "2025-12-20T11:30:28.028038+00:00", "meta": {"OBJECT_NAME": "SARAL", "OBJECT_ID": "2013-009A", "EPOCH": "2025-12-20T03:07:24.068352", "MEAN_MOTION": 14.32759395, "ECCENTRICITY": 0.0002958, "INCLINATION": 98.5502, "RA_OF_ASC_NODE": 177.9641, "ARG_OF_PERICENTER": 94.6327, "MEAN_ANOMALY": 265.5194, "EPHEMERIS_TYPE": 0, "CLASSIFICATION_TYPE": "U", "NORAD_CAT_ID": 39086, "ELEMENT_SET_NO": 999, "REV_AT_EPOCH": 66996, "BSTAR": 4.5891e-05, "MEAN_MOTION_DOT": 8.1e-07, "MEAN_MOTION_DDOT": 0}, "tle": {"line1": "1 39086U 13009A   25354.13013968  .00000081  00000+0  45891-4 0  9998", "line2": "2 39086  98.5502 177.9641 0002958  94.6327 265.5194 14.32759395669963"}}, "geometry": {"type": "Point", "coordinates": [178.1749610058052, 0.8891335927307921]}}, {"type": "Feature", "properties": {"norad_id": 39150, "name": "GAOFEN-1", "group": "resource", "lat": -79.8691208824812, "lon": 116.29468845114627, "alt_km": 659.6105663179342, "timestamp": "2025-12-20T11:30:28.028048+00:00", "meta": {"OBJECT_NAME": "GAOFEN-1", "OBJECT_ID": "2013-018A", "EPOCH": "2025-12-20T05:22:54.126912", "MEAN_MOTION": 14.76491553, "ECCENTRICITY": 0.0018367, "INCLINATION": 97.9326, "RA_OF_ASC_NODE": 64.7516, "ARG_OF_PERICENTER": 120.4091, "MEAN_ANOMALY": 239.8937, "EPHEMERIS_TYPE": 0, "CLASSIFICATION_TYPE": "U", "NORAD_CAT_ID": 39150, "ELEMENT_SET_NO": 999, "REV_AT_EPOCH": 68183, "BSTAR": 5.9175e-05, "MEAN_MOTION_DOT": 3.62e-06, "MEAN_MOTION_DDOT": 0}, "tle": {"line1": "1 39150U 13018A   25354.22423758  .00000362  00000+0  59175-4 0  9994", "line2": "2 39150  97.9326  64.7516 0018367 120.4091 239.8937 14.76491553681839"}}, "geometry": {"type": "Point", "coordinates": [116.29468845114627, -79.8691208824812]}}, {"type": "Feature", "properties": {"norad_id": 39160, "name": "VNREDSAT 1", "group": "resource", "lat": 15.672898676828016, "lon": 47.24016287599078, "alt_km": 677.674027951568, "timestamp": "2025-12-20T11:30:28.028057+00:00", "meta": {"OBJECT_NAME": "VNREDSAT 1", "OBJECT_ID": "2013-021B", "EPOCH": "2025-12-20T04:52:43.031712", "MEAN_MOTION": 14.64934073, "ECCENTRICITY": 0.0001201, "INCLINATION": 97.937, "RA_OF_ASC_NODE": 49.217, "ARG_OF_PERICENTER": 81.4528, "MEAN_ANOMALY": 278.6812, "EPHEMERIS_TYPE": 0, "CLASSIFICATION_TYPE": "U", "NORAD_CAT_ID": 39160, "ELEMENT_SET_NO": 999, "REV_AT_EPOCH": 67408, "BSTAR": 0.00014111, "MEAN_MOTION_DOT": 7.09e-06, "MEAN_MOTION_DDOT": 0}, "tle": {"line1": "1 39160U 13021B   25354.20327583  .00000709  00000+0  14111-3 0  9991", "line2": "2 39160  97.9370  49.2170 0001201  81.4528 278.6812 14.64934073674081"}}, "geometry": {"type": "Point", "coordinates": [47.24016287599078, 15.672898676828016]}}, {"type": "Feature", "properties": {"norad_id": 39227, "name": "ARIRANG-5 (KOMPSAT-5)", "group": "resource", "lat": 63.12208823424961, "lon": 13.977829357381442, "alt_km": 546.3574553672961, "timestamp": "2025-12-20T11:30:28.028067+00:00", "meta": {"OBJECT_NAME": "ARIRANG-5 (KOMPSAT-5)", "OBJECT_ID": "2013-042A", "EPOCH": "2025-12-20T04:36:37.618848", "MEAN_MOTION": 15.04536886, "ECCENTRICITY": 0.0003439, "INCLINATION": 97.6153, "RA_OF_ASC_NODE": 178.3888, "ARG_OF_PERICENTER": 37.2342, "MEAN_ANOMALY": 322.9122, "EPHEMERIS_TYPE": 0, "CLASSIFICATION_TYPE": "U", "NORAD_CAT_ID": 39227, "ELEMENT_SET_NO": 999, "REV_AT_EPOCH": 67694, "BSTAR": 0.00012579, "MEAN_MOTION_DOT": 1.702e-05, "MEAN_MOTION_DDOT": 0}, "tle": {"line1": "1 39227U 13042A   25354.19210207  .00001702  00000+0  12579-3 0  9990", "line2": "2 39227  97.6153 178.3888 0003439  37.2342 322.9122 15.04536886676948"}}, "geometry": {"type": "Point", "coordinates": [13.977829357381442, 63.12208823424961]}}, {"type": "Feature", "properties": {"norad_id": 39418, "name": "SKYSAT-A", "group": "resource", "lat": -33.08089741894084, "lon": 49.316076426803725, "alt_km": 544.2728376201076, "timestamp": "2025-12-20T11:30:28.028078+00:00", "meta": {"OBJECT_NAME": "SKYSAT-A", "OBJECT_ID": "2013-066C", "EPOCH": "2025-12-20T02:07:24.987360", "MEAN_MOTION": 15.11653345, "ECCENTRICITY": 0.0021262, "INCLINATION": 97.4098, "RA_OF_ASC_NODE": 44.0738, "ARG_OF_PERICENTER": 209.9149, "MEAN_ANOMALY": 150.0868, "EPHEMERIS_TYPE": 0, "CLASSIFICATION_TYPE": "U", "NORAD_CAT_ID": 39418, "ELEMENT_SET_NO": 999, "REV_AT_EPOCH": 66141, "BSTAR": 0.00017333, "MEAN_MOTION_DOT": 2.899e-05, "MEAN_MOTION_DDOT": 0}, "tle": {"line1": "1 39418U 13066C   25354.08848365  .00002899  00000+0  17333-3 0  9999", "line2": "2 39418  97.4098  44.0738 0021262 209.9149 150.0868 15.11653345661417"}}, "geometry": {"type": "Point", "coordinates": [49.316076426803725, -33.08089741894084]}}, {"type": "Feature", "properties": {"norad_id": 39419, "name": "DUBAISAT-2", "group": "resource", "lat": 18.40021257426075, "lon": -17.8441792211535, "alt_km": 541.0522536601002, "timestamp": "2025-12-20T11:30:28.028088+00:00", "meta": {"OBJECT_NAME": "DUBAISAT-2", "OBJECT_ID": "2013-066D", "EPOCH": "2025-12-20T03:27:55.444608", "MEAN_MOTION": 15.08418813, "ECCENTRICITY": 0.000999, "INCLINATION": 97.444, "RA_OF_ASC_NODE": 344.3239, "ARG_OF_PERICENTER": 292.8442, "MEAN_ANOMALY": 67.1731, "EPHEMERIS_TYPE": 0, "CLASSIFICATION_TYPE": "U", "NORAD_CAT_ID": 39419, "ELEMENT_SET_NO": 999, "REV_AT_EPOCH": 65938, "BSTAR": 0.00010091, "MEAN_MOTION_DOT": 1.51e-05, "MEAN_MOTION_DDOT": 0}, "tle": {"line1": "1 39419U 13066D   25354.14439172  .00001510  00000+0  10091-3 0  9992", "line2": "2 39419  97.4440 344.3239 0009990 292.8442  67.1731 15.08418813659387"}}, "geometry": {"type": "Point", "coordinates": [-17.8441792211535, 18.40021257426075]}}, {"type": "Feature", "properties": {"norad_id": 39574, "name": "GPM-CORE", "group": "resource", "lat": 61.42614131003367, "lon": -52.31900108887583, "alt_km": 430.7966786820607, "timestamp": "2025-12-20T11:30:28.028098+00:00", "meta": {"OBJECT_NAME": "GPM-CORE", "OBJECT_ID": "2014-009C", "EPOCH": "2025-12-20T03:17:17.009952", "MEAN_MOTION": 15.44570936, "ECCENTRICITY": 0.0009399, "INCLINATION": 64.9718, "RA_OF_ASC_NODE": 187.9101, "ARG_OF_PERICENTER": 248.018, "MEAN_ANOMALY": 111.9962, "EPHEMERIS_TYPE": 0, "CLASSIFICATION_TYPE": "U", "NORAD_CAT_ID": 39574, "ELEMENT_SET_NO": 999, "REV_AT_EPOCH": 67015, "BSTAR": 0.00012335, "MEAN_MOTION_DOT": 5.517e-05, "MEAN_MOTION_DDOT": 0}, "tle": {"line1": "1 39574U 14009C   25354.13700243  .00005517  00000+0  12335-3 0  9995", "line2": "2 39574  64.9718 187.9101 0009399 248.0180 111.9962 15.44570936670157"}}, "geometry": {"type": "Point", "coordinates": [-52.31900108887583, 61.42614131003367]}}]}